CUTE-1 (CO-55)          
1 27844U 03031E   26133.96662766  .00000191  00000+0  10178-3 0  9995
2 27844  98.6747 142.9554 0008324 287.2736  72.7532 14.24313628186803
CUBESAT XI-IV (CO-57)   
1 27848U 03031J   26133.51625643  .00000166  00000+0  92066-4 0  9992
2 27848  98.6778 142.2511 0008437 309.7556  50.2879 14.23601563186444
CUBESAT XI-V            
1 28895U 05043F   26133.40904681  .00000792  00000+0  13289-3 0  9994
2 28895  98.2946 288.3105 0013121 319.7744  40.2490 14.72536322 96630
CUTE-1.7+APD II (CO-65) 
1 32785U 08021C   26133.90610852  .00003201  00000+0  20590-3 0  9996
2 32785  97.8259 114.6252 0010065 137.4666 222.7343 15.09111750980025
CANX-2                  
1 32790U 08021H   26133.46031811  .00001970  00000+0  14187-3 0  9991
2 32790  97.8625 112.5755 0011234 151.8484 208.3351 15.05361840979581
SEEDS II (CO-66)        
1 32791U 08021J   26133.97786064  .00012151  00000+0  40134-3 0  9999
2 32791  97.7520 130.2774 0004981  82.4291 277.7515 15.31540490982056
SWISSCUBE               
1 35932U 09051B   26133.20649610  .00000617  00000+0  13181-3 0  9990
2 35932  98.4058  40.4838 0006177 333.2557  26.8324 14.62411070884049
BEESAT-1                
1 35933U 09051C   26133.54014512  .00000511  00000+0  11264-3 0  9998
2 35933  98.3987  40.5309 0005015 350.4158   9.6946 14.61661113884124
ITUPSAT1                
1 35935U 09051E   26133.98037321  .00000462  00000+0  10562-3 0  9996
2 35935  98.4072  40.2059 0007378 355.8503   4.2634 14.60386348883743
TISAT 1                 
1 36799U 10035E   26133.34624792  .00012278  00000+0  42092-3 0  9994
2 36799  98.0691  76.8483 0003487  52.2159 307.9396 15.30347916862373
AEROCUBE 4.5A           
1 38767U 12048K   26133.40036950  .00121316  00000+0  69699-3 0  9993
2 38767  64.6289 152.2600 0019057 216.8530 143.1315 15.77906015367141
STRAND-1                
1 39090U 13009E   26133.45373878  .00000176  00000+0  73686-4 0  9991
2 39090  98.3916 314.5447 0008165 343.0038  17.0874 14.37141977692073
BRITE-AUSTRIA           
1 39091U 13009F   26133.45170535  .00000103  00000+0  49498-4 0  9991
2 39091  98.3988 313.7488 0009898 350.9654   9.1353 14.36527680692065
NEE-01 PEGASO           
1 39151U 13018B   26133.36122948  .00001488  00000+0  14717-3 0  9995
2 39151  98.1178 276.3748 0011280 279.5915  80.4029 14.93483981705502
POPACS 2                
1 39269U 13055E   26133.54293598  .00009675  00000+0  16618-3 0  9994
2 39269  80.9929 183.8280 0419174 305.2468  51.0182 14.90416576658056
POPACS 3                
1 39270U 13055F   26133.33857604  .00010771  00000+0  25723-3 0  9993
2 39270  81.0001 266.9447 0554899 175.9665 184.6305 14.55254304633484
ZACUBE-1 (TSHEPISOSAT)  
1 39417U 13066B   26133.87678758  .00003054  00000+0  24041-3 0  9996
2 39417  97.8119  96.0275 0041751   8.5716 351.6211 15.00914347675589
WNISAT-1                
1 39423U 13066H   26133.96661904  .00000282  00000+0  60534-4 0  9996
2 39423  97.7159 285.5601 0162606 340.1790  19.3138 14.58018507661741
TRITON-1                
1 39427U 13066M   26133.92067863  .00002058  00000+0  25133-3 0  9998
2 39427  97.8266  44.5079 0090074 347.1653  12.7267 14.81551985669017
GOMX-1                  
1 39430U 13066Q   26133.93289039  .00001094  00000+0  17105-3 0  9993
2 39430  97.6515 336.5562 0128512 186.8684 173.0767 14.69319389664880
CUBEBUG-2 (LO-74)       
1 39440U 13066AA  26133.42777408  .00001579  00000+0  15075-3 0  9992
2 39440  97.8890  82.2722 0058865 141.3076 219.2383 14.93493448671809
NEE-02 KRYSAOR          
1 39441U 13066AB  26133.27443470  .00000951  00000+0  10977-3 0  9994
2 39441  97.8882  72.7460 0066091 182.8707 177.2139 14.86483884671015
FUNCUBE-1 (AO-73)       
1 39444U 13066AE  26133.91230463  .00005221  00000+0  32957-3 0  9991
2 39444  97.8259 104.6589 0035249 323.1335  36.7470 15.09032185674493
UWE-3                   
1 39446U 13066AG  26133.38821264  .00002066  00000+0  18157-3 0  9999
2 39446  97.8680  89.2422 0050799  75.9697 284.7165 14.96721930672376
BRITE-CA1 (TORONTO)     
1 40020U 14033L   26133.58951810  .00000435  00000+0  73067-4 0  9997
2 40020  97.9689 263.1660 0079242  28.6389 331.9136 14.72628086637129
DUCHIFAT-1              
1 40021U 14033M   26133.60229133  .00058134  00000+0  76203-3 0  9990
2 40021  98.0506 188.0926 0005808 184.6576 175.4625 15.58372421650356
NANOSATC-BR1            
1 40024U 14033Q   26133.03929226  .00010985  00000+0  37739-3 0  9993
2 40024  98.0756 162.3424 0001930 326.7264  33.3853 15.30316701648608
QB50P1                  
1 40025U 14033R   26133.54269556  .00005111  00000+0  25713-3 0  9997
2 40025  98.0980 142.2743 0008313 356.9133   3.2046 15.17705167647771
QB50P2                  
1 40032U 14033Y   26133.95146186  .00004160  00000+0  22865-3 0  9991
2 40032  98.0752 128.7150 0005788 298.4535  61.6112 15.14702636647481
PERSEUS-M2              
1 40037U 14033AD  26133.93878807  .00001150  00000+0  10950-3 0  9994
2 40037  97.9936  83.7889 0013211  57.3235 302.9258 14.95398325645660
